[{"OBJECT_NAME":"LEMUR-2-DEMBITZ","OBJECT_ID":"2017-042T","EPOCH":"2026-03-09T11:23:53.232288","MEAN_MOTION":15.26947128,"ECCENTRICITY":0.00069617,"INCLINATION":97.3807,"RA_OF_ASC_NODE":250.9241,"ARG_OF_PERICENTER":17.1421,"MEAN_ANOMALY":343.0051,"EPHEMERIS_TYPE":0,"CLASSIFICATION_TYPE":"U","NORAD_CAT_ID":42842,"ELEMENT_SET_NO":999,"REV_AT_EPOCH":47311,"BSTAR":0.00076560825,"MEAN_MOTION_DOT":0.00020231,"MEAN_MOTION_DDOT":0},{"OBJECT_NAME":"STARLINK-31750","OBJECT_ID":"2024-074U","EPOCH":"2026-03-09T02:22:20.214912","MEAN_MOTION":15.27567967,"ECCENTRICITY":0.00013507,"INCLINATION":43.0053,"RA_OF_ASC_NODE":346.8855,"ARG_OF_PERICENTER":260.2183,"MEAN_ANOMALY":99.8516,"EPHEMERIS_TYPE":0,"CLASSIFICATION_TYPE":"U","NORAD_CAT_ID":59552,"ELEMENT_SET_NO":999,"REV_AT_EPOCH":10592,"BSTAR":-7.2379796e-5,"MEAN_MOTION_DOT":-2.253e-5,"MEAN_MOTION_DDOT":0}]
